NORAD_CAT_ID,OBJECT_NAME,OBJECT_TYPE,EPOCH,MEAN_MOTION,ECCENTRICITY,INCLINATION,RA_OF_ASC_NODE,ARG_OF_PERICENTER,MEAN_ANOMALY,BSTAR,MEAN_MOTION_DOT,MEAN_MOTION_DDOT,TLE_LINE0,TLE_LINE1,TLE_LINE2,SEMIMAJOR_AXIS,PERIOD,APOGEE,PERIGEE,DECAYED
51115.0,STARLINK-3397,PAYLOAD,2023-09-09 11:43:37,15.08835452,0.0001347,53.2178,64.1465,86.5958,273.5188,3.5092e-05,2.71e-06,0.0,0 STARLINK-3397,1 51115U 22005M   23252.48862345  .00000271  00000-0  35092-4 0  9999,2 51115  53.2178  64.1465 0001347  86.5958 273.5188 15.08835452 91165,6917.894,95.438,540.691,538.827,0.0
51115.0,STARLINK-3397,PAYLOAD,2023-09-09 21:15:55,15.08845041,0.0001425,53.2178,62.362,84.6268,275.4887,8.1345e-05,1.007e-05,0.0,0 STARLINK-3397,1 51115U 22005M   23252.88605651  .00001007  00000-0  81345-4 0  9998,2 51115  53.2178  62.3620 0001425  84.6268 275.4887 15.08845041 92330,6917.865,95.437,540.716,538.744,0.0
51115.0,STARLINK-3397,PAYLOAD,2023-09-10 11:34:23,15.08837565,0.000132,53.2176,59.6838,92.3431,267.7712,7.0402e-05,8.33e-06,0.0,0 STARLINK-3397,1 51115U 22005M   23253.48222134  .00000833  00000-0  70402-4 0  9994,2 51115  53.2176  59.6838 0001320  92.3431 267.7712 15.08837565 91310,6917.888,95.438,540.666,538.84,0.0
51115.0,STARLINK-3397,PAYLOAD,2023-09-10 17:55:56,15.08842022,0.0001268,53.218,58.4961,85.8459,274.2678,0.00011263,1.505e-05,0.0,0 STARLINK-3397,1 51115U 22005M   23253.74717869  .00001505  00000-0  11263-3 0  9993,2 51115  53.2180  58.4961 0001268  85.8459 274.2678 15.08842022 92462,6917.874,95.437,540.616,538.862,0.0
51115.0,STARLINK-3397,PAYLOAD,2023-09-11 03:28:15,15.08842608,0.0001239,53.2179,56.712,83.2753,276.838,4.9988e-05,5.08e-06,0.0,0 STARLINK-3397,1 51115U 22005M   23254.14461994  .00000508  00000-0  49988-4 0  9991,2 51115  53.2179  56.7120 0001239  83.2753 276.8380 15.08842608 91417,6917.872,95.437,540.595,538.88,0.0
51115.0,STARLINK-3397,PAYLOAD,2023-09-11 22:32:52,15.08850828,0.0001292,53.2185,53.143,97.2276,262.8863,0.00015585,2.194e-05,0.0,0 STARLINK-3397,1 51115U 22005M   23254.93949251  .00002194  00000-0  15585-3 0  9993,2 51115  53.2185  53.1430 0001292  97.2276 262.8863 15.08850828 92643,6917.847,95.437,540.606,538.819,0.0
51115.0,STARLINK-3397,PAYLOAD,2023-09-12 11:15:58,15.08838922,0.000155,53.2177,50.7636,89.1259,270.9911,3.8787e-05,3.29e-06,0.0,0 STARLINK-3397,1 51115U 22005M   23255.46942465  .00000329  00000-0  38787-4 0  9990,2 51115  53.2177  50.7636 0001550  89.1259 270.9911 15.08838922 92727,6917.884,95.438,540.821,538.676,0.0
51115.0,STARLINK-3397,PAYLOAD,2023-09-12 17:37:30,15.08842388,0.0001268,53.2179,49.5769,89.1073,271.0064,8.2092e-05,1.019e-05,0.0,0 STARLINK-3397,1 51115U 22005M   23255.73438194  .00001019  00000-0  82092-4 0  9994,2 51115  53.2179  49.5769 0001268  89.1073 271.0064 15.08842388 91655,6917.873,95.437,540.615,538.861,0.0
51115.0,STARLINK-3397,PAYLOAD,2023-09-13 03:09:49,15.08845021,0.0001319,53.2169,47.7922,91.3683,268.746,5.42e-05,5.75e-06,0.0,0 STARLINK-3397,1 51115U 22005M   23256.13181768  .00000575  00000-0  54200-4 0  9997,2 51115  53.2169  47.7922 0001319  91.3683 268.7460 15.08845021 92824,6917.865,95.437,540.643,538.818,0.0
51115.0,STARLINK-3397,PAYLOAD,2023-09-13 19:03:39,15.08855165,0.0001355,53.2171,44.8188,91.5796,268.5351,0.00029751,4.452e-05,0.0,0 STARLINK-3397,1 51115U 22005M   23256.79421254  .00004452  00000-0  29751-3 0  9996,2 51115  53.2171  44.8188 0001355  91.5796 268.5351 15.08855165 91811,6917.834,95.437,540.636,538.762,0.0
51115.0,STARLINK-3397,PAYLOAD,2023-09-14 09:22:09,15.08834079,0.0001459,53.2165,42.1422,80.996,279.1197,5.6473e-06,-1.98e-06,0.0,0 STARLINK-3397,1 51115U 22005M   23257.39038324 -.00000198  00000-0  56473-5 0  9992,2 51115  53.2165  42.1422 0001459  80.9960 279.1197 15.08834079 93017,6917.898,95.438,540.773,538.754,0.0
51115.0,STARLINK-3397,PAYLOAD,2023-09-14 17:19:05,15.08829639,0.0001295,53.2172,40.655,78.5854,281.5283,-6.2135e-05,-1.276e-05,0.0,0 STARLINK-3397,1 51115U 22005M   23257.72158750 -.00001276  00000-0 -62135-4 0  9995,2 51115  53.2172  40.6550 0001295  78.5854 281.5283 15.08829639 91953,6917.912,95.438,540.673,538.881,0.0
51115.0,STARLINK-3397,PAYLOAD,2023-09-15 13:59:06,15.08842864,0.0001651,53.2176,36.7893,76.6824,283.4352,0.00028312,4.221e-05,0.0,0 STARLINK-3397,1 51115U 22005M   23258.58270847  .00004221  00000-0  28312-3 0  9991,2 51115  53.2176  36.7893 0001651  76.6824 283.4352 15.08842864 92083,6917.872,95.437,540.879,538.594,0.0
51115.0,STARLINK-3397,PAYLOAD,2023-09-15 15:34:29,15.08845479,0.0001346,53.2175,36.4925,72.2628,287.8511,0.0002984,4.465e-05,0.0,0 STARLINK-3397,1 51115U 22005M   23258.64894736  .00004465  00000-0  29840-3 0  9994,2 51115  53.2175  36.4925 0001346  72.2628 287.8511 15.08845479 93205,6917.864,95.437,540.66,538.797,0.0
51115.0,STARLINK-3397,PAYLOAD,2023-09-16 09:03:43,15.08841305,0.0001464,53.2178,33.2213,75.1573,284.9581,0.00033499,5.048e-05,0.0,0 STARLINK-3397,1 51115U 22005M   23259.37759144  .00005048  00000-0  33499-3 0  9991,2 51115  53.2178  33.2213 0001464  75.1573 284.9581 15.08841305 93316,6917.876,95.437,540.754,538.729,0.0
51115.0,STARLINK-3397,PAYLOAD,2023-09-16 12:14:30,15.08844223,0.0001539,53.2177,32.6263,80.0941,280.0225,0.0003482,5.259e-05,0.0,0 STARLINK-3397,1 51115U 22005M   23259.51007043  .00005259  00000-0  34820-3 0  9994,2 51115  53.2177  32.6263 0001539  80.0941 280.0225 15.08844223 92223,6917.867,95.437,540.797,538.668,0.0
51115.0,STARLINK-3397,PAYLOAD,2023-09-17 13:40:39,15.08851224,0.0001445,53.2187,27.8696,81.5577,278.5579,0.0003307,4.981e-05,0.0,0 STARLINK-3397,1 51115U 22005M   23260.56990726  .00004981  00000-0  33070-3 0  9997,2 51115  53.2187  27.8696 0001445  81.5577 278.5579 15.08851224 92387,6917.846,95.437,540.711,538.711,0.0
51115.0,STARLINK-3397,PAYLOAD,2023-09-17 15:16:03,15.08852796,0.000147,53.219,27.5728,82.6185,277.4974,0.00036395,5.511e-05,0.0,0 STARLINK-3397,1 51115U 22005M   23260.63614673  .00005511  00000-0  36395-3 0  9992,2 51115  53.2190  27.5728 0001470  82.6185 277.4974 15.08852796 93506,6917.841,95.437,540.723,538.689,0.0
51115.0,STARLINK-3397,PAYLOAD,2023-09-18 08:45:18,15.08838371,0.0001566,53.2202,24.3032,89.3752,270.7419,0.00021544,3.142e-05,0.0,0 STARLINK-3397,1 51115U 22005M   23261.36479197  .00003142  00000-0  21544-3 0  9991,2 51115  53.2202  24.3032 0001566  89.3752 270.7419 15.08838371 93618,6917.885,95.438,540.834,538.667,0.0
51115.0,STARLINK-3397,PAYLOAD,2023-09-18 13:31:27,15.08843743,0.0001629,53.22,23.4108,89.7355,270.3824,1.8695e-05,1e-07,0.0,0 STARLINK-3397,1 51115U 22005M   23261.56350825  .00000010  00000-0  18695-4 0  9994,2 51115  53.2200  23.4108 0001629  89.7355 270.3824 15.08843743 92538,6917.869,95.437,540.861,538.607,0.0
51115.0,STARLINK-3397,PAYLOAD,2023-09-18 15:06:50,15.08845544,0.0001599,53.2201,23.114,95.5981,264.5194,-2.4016e-05,-6.7e-06,0.0,0 STARLINK-3397,1 51115U 22005M   23261.62974716 -.00000670  00000-0 -24016-4 0  9990,2 51115  53.2201  23.1140 0001599  95.5981 264.5194 15.08845544 92545,6917.863,95.437,540.835,538.622,0.0
51115.0,STARLINK-3397,PAYLOAD,2023-09-19 14:57:36,15.08859909,0.0001567,53.2195,18.6511,102.881,257.2357,0.00032313,4.861e-05,0.0,0 STARLINK-3397,1 51115U 22005M   23262.62333701  .00004861  00000-0  32313-3 0  9996,2 51115  53.2195  18.6511 0001567 102.8810 257.2357 15.08859909 93806,6917.82,95.436,540.769,538.601,0.0
51115.0,STARLINK-3397,PAYLOAD,2023-09-20 13:13:01,15.08826028,0.000161,53.2192,14.4891,123.3023,236.8123,-0.00015674,-2.781e-05,0.0,0 STARLINK-3397,1 51115U 22005M   23263.55071665 -.00002781  00000-0 -15674-3 0  9999,2 51115  53.2192  14.4891 0001610 123.3023 236.8123 15.08826028 93946,6917.923,95.438,540.902,538.674,0.0
51115.0,STARLINK-3397,PAYLOAD,2023-09-20 14:48:25,15.08818928,0.0001382,53.2191,14.1915,80.4369,279.6779,-0.00023709,-4.057e-05,0.0,0 STARLINK-3397,1 51115U 22005M   23263.61696244 -.00004057  00000-0 -23709-3 0  9998,2 51115  53.2191  14.1915 0001382  80.4369 279.6779 15.08818928 92841,6917.945,95.439,540.766,538.854,0.0
51115.0,STARLINK-3397,PAYLOAD,2023-09-21 08:17:39,15.08835273,0.0001416,53.2191,10.9186,72.1492,287.9654,-6.5711e-05,-1.333e-05,0.0,0 STARLINK-3397,1 51115U 22005M   23264.34560016 -.00001333  00000-0 -65711-4 0  9990,2 51115  53.2191  10.9186 0001416  72.1492 287.9654 15.08835273 94060,6917.895,95.438,540.739,538.78,0.0
51115.0,STARLINK-3397,PAYLOAD,2023-09-21 13:03:48,15.08843773,0.0001437,53.2197,10.0277,81.0628,279.0526,9.5658e-05,1.235e-05,0.0,0 STARLINK-3397,1 51115U 22005M   23264.54431677  .00001235  00000-0  95658-4 0  9994,2 51115  53.2197  10.0277 0001437  81.0628 279.0526 15.08843773 92984,6917.869,95.437,540.728,538.74,0.0
51115.0,STARLINK-3397,PAYLOAD,2023-09-21 14:39:12,15.08845989,0.0001407,53.2183,9.7297,65.6706,294.4433,0.00037128,5.627e-05,0.0,0 STARLINK-3397,1 51115U 22005M   23264.61055865  .00005627  00000-0  37128-3 0  9999,2 51115  53.2183   9.7297 0001407  65.6706 294.4433 15.08845989 94103,6917.862,95.437,540.7,538.754,0.0
51115.0,STARLINK-3397,PAYLOAD,2023-09-22 00:11:31,15.08842312,0.0001419,53.218,7.9461,69.0767,291.0377,0.00058947,9.106e-05,0.0,0 STARLINK-3397,1 51115U 22005M   23265.00800310  .00009106  00000-0  58947-3 0  9994,2 51115  53.2180   7.9461 0001419  69.0767 291.0377 15.08842312 94164,6917.873,95.437,540.72,538.757,0.0
51115.0,STARLINK-3397,PAYLOAD,2023-09-22 12:54:36,15.08851472,0.0001595,53.2192,5.569,66.5726,293.5434,0.00054025,8.323e-05,0.0,0 STARLINK-3397,1 51115U 22005M   23265.53791898  .00008323  00000-0  54025-3 0  9995,2 51115  53.2192   5.5690 0001595  66.5726 293.5434 15.08851472 93131,6917.845,95.437,540.814,538.607,0.0
51115.0,STARLINK-3397,PAYLOAD,2023-09-22 14:29:59,15.088554,0.0001505,53.2178,5.2708,63.3426,296.7721,0.00057428,8.867e-05,0.0,0 STARLINK-3397,1 51115U 22005M   23265.60415699  .00008867  00000-0  57428-3 0  9998,2 51115  53.2178   5.2708 0001505  63.3426 296.7721 15.08855400 93145,6917.833,95.437,540.739,538.657,0.0
